norad_id,name,regime,epoch,line1,line2,inclination,eccentricity,mean_motion,raan,arg_pericenter,mean_anomaly
43231,O3B FM15,MEO,20075.74286466,1 43231U 18024A   20075.74286466 -.00000030 +00000-0 +00000-0 0 0001\,2 43231 000.0479 003.9187 0002852 354.3227 001.7527 05.0011522603688,0.0479,0.0002852,5.00115226,3.9187,354.3227,1.7527
43231,O3B FM15,MEO,20075.94275537,1 43231U 18024A   20075.94275537 -.00000030 +00000-0 +00000-0 0 0001\,2 43231 000.0479 003.9306 0002852 354.5234 001.5402 05.0011523203689,0.0479,0.0002852,5.00115232,3.9306,354.5234,1.5402
43231,O3B FM15,MEO,20076.74231823,1 43231U 18024A   20076.74231823 -.00000031 +00000-0 +00000-0 0 0001\,2 43231 000.0479 003.9720 0002853 355.3164 000.7062 05.0011525103693,0.0479,0.0002853,5.00115251,3.972,355.3164,0.7062
43231,O3B FM15,MEO,20077.14209964,1 43231U 18024A   20077.14209964 -.00000032 +00000-0 +00000-0 0 0001\,2 43231 000.0479 003.9999 0002853 355.7030 000.2918 05.0011526303695,0.0479,0.0002853,5.00115263,3.9999,355.703,0.2918
43231,O3B FM15,MEO,20077.74177169,1 43231U 18024A   20077.74177169 -.00000033 +00000-0 +00000-0 0 0001\,2 43231 000.0478 004.0426 0002853 356.2258 359.7265 05.0011526903698,0.0478,0.0002853,5.00115269,4.0426,356.2258,359.7265
43231,O3B FM15,MEO,20084.73794919,1 43231U 18024A   20084.73794919 -.00000027 +00000-0 +00000-0 0 0001\,2 43231 000.0477 004.3778 0002856 002.7313 352.8921 05.0011535003733,0.0477,0.0002856,5.0011535,4.3778,2.7313,352.8921
43231,O3B FM15,MEO,20085.13773093,1 43231U 18024A   20085.13773093 -.00000026  00000-0  00000+0 0  1716\,2 43231   0.0477   4.3510 0002856   3.0141 352.6366  5.00115338 37373,0.0477,0.0002856,5.00115338,4.351,3.0141,352.6366
43231,O3B FM15,MEO,20085.93729431,1 43231U 18024A   20085.93729431 -.00000025 +00000-0 +00000-0 0 0001\,2 43231 000.0477 004.3868 0002858 003.9192 351.6968 05.0011533103739,0.0477,0.0002858,5.00115331,4.3868,3.9192,351.6968
43231,O3B FM15,MEO,20086.53696657,1 43231U 18024A   20086.53696657 -.00000024 +00000-0 +00000-0 0 0001\,2 43231 000.0476 004.4502 0002858 004.4741 351.0793 05.0011534203742,0.0476,0.0002858,5.00115342,4.4502,4.4741,351.0793
43231,O3B FM15,MEO,20087.73631138,1 43231U 18024A   20087.73631138 -.00000022 +00000-0 +00000-0 0 0001\,2 43231 000.0476 004.4406 0002860 005.7057 349.8586 05.0011533603748,0.0476,0.000286,5.00115336,4.4406,5.7057,349.8586
43231,O3B FM15,MEO,20088.33598351,1 43231U 18024A   20088.33598351 -.00000021 +00000-0 +00000-0 0 0001\,2 43231 000.0476 004.5216 0002861 006.2756 349.2084 05.0011534903751,0.0476,0.0002861,5.00115349,4.5216,6.2756,349.2084
43231,O3B FM15,MEO,20088.93565631,1 43231U 18024A   20088.93565631 -.00000020 +00000-0 +00000-0 0 0001\,2 43231 000.0476 004.5813 0002861 006.6898 348.7350 05.0011530103754,0.0476,0.0002861,5.00115301,4.5813,6.6898,348.735
43231,O3B FM15,MEO,20089.53532856,1 43231U 18024A   20089.53532856 -.00000019  00000-0  00000+0 0  1727\,2 43231   0.0476   4.5430 0002862   7.3329 348.1306  5.00115301 37595,0.0476,0.0002862,5.00115301,4.543,7.3329,348.1306
43231,O3B FM15,MEO,20089.73521930,1 43231U 18024A   20089.73521930 -.00000019 +00000-0 +00000-0 0 0001\,2 43231 000.0476 004.5623 0002862 007.5192 347.9252 05.0011530103758,0.0476,0.0002862,5.00115301,4.5623,7.5192,347.9252
43231,O3B FM15,MEO,20095.73194130,1 43231U 18024A   20095.73194130 -.00000020  00000-0  00000+0 0  1738\,2 43231   0.0473   5.0171 0002872  12.8757 342.1163  5.00115217 37903,0.0473,0.0002872,5.00115217,5.0171,12.8757,342.1163
43231,O3B FM15,MEO,20096.33161383,1 43231U 18024A   20096.33161383 -.00000020 +00000-0 +00000-0 0 0001\,2 43231 000.0473 004.9884 0002872 013.5294 341.4914 05.0011519003790,0.0473,0.0002872,5.0011519,4.9884,13.5294,341.4914
43231,O3B FM15,MEO,20096.53150459,1 43231U 18024A   20096.53150459 -.00000020 +00000-0 +00000-0 0 0001\,2 43231 000.0473 005.0003 0002872 013.7158 341.2934 05.0011518803791,0.0473,0.0002872,5.00115188,5.0003,13.7158,341.2934
43231,O3B FM15,MEO,20097.33106732,1 43231U 18024A   20097.33106732 -.00000021 +00000-0 +00000-0 0 0001\,2 43231 000.0472 005.1356 0002874 014.5300 340.3443 05.0011520703796,0.0472,0.0002874,5.00115207,5.1356,14.53,340.3443
43231,O3B FM15,MEO,20097.73084885,1 43231U 18024A   20097.73084885 -.00000021 +00000-0 +00000-0 0 0001\,2 43231 000.0472 005.1726 0002875 014.9399 339.8977 05.0011520503798,0.0472,0.0002875,5.00115205,5.1726,14.9399,339.8977
43231,O3B FM15,MEO,20098.73030237,1 43231U 18024A   20098.73030237 -.00000022 +00000-0 +00000-0 0 0001\,2 43231 000.0472 005.1759 0002877 015.9239 338.9109 05.0011522703803,0.0472,0.0002877,5.00115227,5.1759,15.9239,338.9109
43231,O3B FM15,MEO,20098.93019312,1 43231U 18024A   20098.93019312 -.00000022 +00000-0 +00000-0 0 0001\,2 43231 000.0472 005.2327 0002879 016.1018 338.6763 05.0011522703804,0.0472,0.0002879,5.00115227,5.2327,16.1018,338.6763
43231,O3B FM15,MEO,20099.72975628,1 43231U 18024A   20099.72975628 -.00000023 +00000-0 +00000-0 0 0001\,2 43231 000.0471 005.2053 0002880 016.8880 337.9179 05.0011521803808,0.0471,0.000288,5.00115218,5.2053,16.888,337.9179
43231,O3B FM15,MEO,20100.32942844,1 43231U 18024A   20100.32942844 -.00000024 +00000-0 +00000-0 0 0001\,2 43231 000.0471 005.2344 0002881 017.4817 337.2954 05.0011522803811,0.0471,0.0002881,5.00115228,5.2344,17.4817,337.2954
43231,O3B FM15,MEO,20100.52931919,1 43231U 18024A   20100.52931919 -.00000024 +00000-0 +00000-0 0 0001\,2 43231 000.0471 005.2454 0002881 017.6729 337.0933 05.0011522903812,0.0471,0.0002881,5.00115229,5.2454,17.6729,337.0933
43231,O3B FM15,MEO,20100.92910081,1 43231U 18024A   20100.92910081 -.00000025 +00000-0 +00000-0 0 0001\,2 43231 000.0471 005.3307 0002883 018.0806 336.6006 05.0011522303814,0.0471,0.0002883,5.00115223,5.3307,18.0806,336.6006
43231,O3B FM15,MEO,20101.52877295,1 43231U 18024A   20101.52877295 -.00000026 +00000-0 +00000-0 0 0001\,2 43231 000.0471 005.3039 0002884 018.6959 336.0123 05.0011523503817,0.0471,0.0002884,5.00115235,5.3039,18.6959,336.0123
43231,O3B FM15,MEO,20101.92855429,1 43231U 18024A   20101.92855429 -.00000027 +00000-0 +00000-0 0 0001\,2 43231 000.0471 005.3897 0002884 018.9984 335.6241 05.0011524803819,0.0471,0.0002884,5.00115248,5.3897,18.9984,335.6241
43231,O3B FM15,MEO,20102.72811724,1 43231U 18024A   20102.72811724 -.00000028 +00000-0 +00000-0 0 0001\,2 43231 000.0470 005.3801 0002887 019.8837 334.7487 05.0011525603823,0.047,0.0002887,5.00115256,5.3801,19.8837,334.7487
43231,O3B FM15,MEO,20103.32778962,1 43231U 18024A   20103.32778962 -.00000029 +00000-0 +00000-0 0 0001\,2 43231 000.0470 005.4102 0002889 020.4844 334.1181 05.0011524703826,0.047,0.0002889,5.00115247,5.4102,20.4844,334.1181
43231,O3B FM15,MEO,20103.92746176,1 43231U 18024A   20103.92746176 -.00000030 +00000-0 +00000-0 0 0001\,2 43231 000.0470 005.4565 0002890 021.0581 333.4983 05.0011525803829,0.047,0.000289,5.00115258,5.4565,21.0581,333.4983
43231,O3B FM15,MEO,20104.52713382,1 43231U 18024A   20104.52713382 -.00000031  00000-0  00000+0 0  1756\,2 43231   0.0470   5.4915 0002889  21.5476 332.9740  5.00115272 38341,0.047,0.0002889,5.00115272,5.4915,21.5476,332.974
43231,O3B FM15,MEO,20104.72702480,1 43231U 18024A   20104.72702480 -.00000032 +00000-0 +00000-0 0 0001\,2 43231 000.0470 005.5032 0002889 021.7458 332.7641 05.0011525603833,0.047,0.0002889,5.00115256,5.5032,21.7458,332.7641
43231,O3B FM15,MEO,20105.32669687,1 43231U 18024A   20105.32669687 -.00000032 +00000-0 +00000-0 0 0001\,2 43231 000.0469 005.5438 0002891 022.3046 332.1649 05.0011527403836,0.0469,0.0002891,5.00115274,5.5438,22.3046,332.1649
43231,O3B FM15,MEO,20105.72647833,1 43231U 18024A   20105.72647833 -.00000033 +00000-0 +00000-0 0 0001\,2 43231 000.0469 005.5701 0002892 022.6762 331.7672 05.0011528103838,0.0469,0.0002892,5.00115281,5.5701,22.6762,331.7672
43231,O3B FM15,MEO,20106.12625966,1 43231U 18024A   20106.12625966 -.00000033 +00000-0 +00000-0 0 0001\,2 43231 000.0469 005.6170 0002891 023.0501 331.3466 05.0011529903840,0.0469,0.0002891,5.00115299,5.617,23.0501,331.3466
43231,O3B FM15,MEO,20107.72538565,1 43231U 18024A   20107.72538565 -.00000033 +00000-0 +00000-0 0 0001\,2 43231 000.0468 005.6991 0002894 024.5207 329.7949 05.0011532203848,0.0468,0.0002894,5.00115322,5.6991,24.5207,329.7949
43231,O3B FM15,MEO,20109.32451116,1 43231U 18024A   20109.32451116 -.00000031  00000-0  00000+0 0  1764\,2 43231   0.0467   5.6915 0002896  25.8702 328.4542  5.00115383 38585,0.0467,0.0002896,5.00115383,5.6915,25.8702,328.4542
43231,O3B FM15,MEO,20109.52440203,1 43231U 18024A   20109.52440203 -.00000031 +00000-0 +00000-0 0 0001\,2 43231 000.0467 005.6833 0002896 026.0600 328.2727 05.0011537703856,0.0467,0.0002896,5.00115377,5.6833,26.06,328.2727
43231,O3B FM15,MEO,20110.12407502,1 43231U 18024A   20110.12407502 -.00000030 +00000-0 +00000-0 0 0001\,2 43231 000.0467 005.6969 0002896 026.6087 327.7111 05.0011533403859,0.0467,0.0002896,5.00115334,5.6969,26.6087,327.7111
43231,O3B FM15,MEO,20110.52385685,1 43231U 18024A   20110.52385685 -.00000029 +00000-0 +00000-0 0 0001\,2 43231 000.0467 005.6994 0002896 026.9458 327.3718 05.0011531603861,0.0467,0.0002896,5.00115316,5.6994,26.9458,327.3718
43231,O3B FM15,MEO,20111.12352913,1 43231U 18024A   20111.12352913 -.00000028 +00000-0 +00000-0 0 0001\,2 43231 000.0466 005.7080 0002897 027.5458 326.7639 05.0011532903864,0.0466,0.0002897,5.00115329,5.708,27.5458,326.7639
43231,O3B FM15,MEO,20111.72320146,1 43231U 18024A   20111.72320146 -.00000027 +00000-0 +00000-0 0 0001\,2 43231 000.0465 005.5249 0002885 028.8574 325.6363 05.0011531703868,0.0465,0.0002885,5.00115317,5.5249,28.8574,325.6363
43231,O3B FM15,MEO,20112.72265480,1 43231U 18024A   20112.72265480 -.00000025 +00000-0 +00000-0 0 0001\,2 43231 000.0465 005.5775 0002889 029.3358 325.1063 05.0011537603873,0.0465,0.0002889,5.00115376,5.5775,29.3358,325.1063
43231,O3B FM15,MEO,20113.32232745,1 43231U 18024A   20113.32232745 -.00000023 +00000-0 +00000-0 0 0001\,2 43231 000.0465 005.6783 0002892 030.1117 324.2304 05.0011535003876,0.0465,0.0002892,5.0011535,5.6783,30.1117,324.2304
